{
  "norad_id": 63804,
  "name": "STARLINK-33909",
  "history": [
    {
      "epoch": "2026-03-28T00:33:32.381280Z",
      "apogee_km": 483.8138706928612,
      "perigee_km": 482.1854485180711,
      "latitude_deg": -6.687339899800192e-06,
      "longitude_deg": -124.40462181694936,
      "height_km": 483.49180884208954,
      "semi_major_axis_km": 6861.136659605466,
      "eccentricity": 0.00011867,
      "inclination_deg": 42.9997,
      "raan_deg": 69.43,
      "arg_perigee_deg": 208.3847,
      "mean_anomaly_deg": 151.694,
      "mean_motion_rev_day": 15.2759651
    },
    {
      "epoch": "2026-03-29T04:48:21.106656Z",
      "apogee_km": 483.6684580199635,
      "perigee_km": 482.3332805905975,
      "latitude_deg": 3.976660189078986e-05,
      "longitude_deg": 164.0839473911016,
      "height_km": 482.91197056280197,
      "semi_major_axis_km": 6861.13786930528,
      "eccentricity": 9.73e-05,
      "inclination_deg": 42.9994,
      "raan_deg": 62.7816,
      "arg_perigee_deg": 258.3441,
      "mean_anomaly_deg": 101.7302,
      "mean_motion_rev_day": 15.27596106
    },
    {
      "epoch": "2026-03-29T07:56:39.767712Z",
      "apogee_km": 483.9263962282894,
      "perigee_km": 481.9989761044517,
      "latitude_deg": -1.3585096867654187e-05,
      "longitude_deg": 116.1451418500383,
      "height_km": 482.60721512775643,
      "semi_major_axis_km": 6861.099686166371,
      "eccentricity": 0.00014046,
      "inclination_deg": 43.0028,
      "raan_deg": 62.0495,
      "arg_perigee_deg": 277.9023,
      "mean_anomaly_deg": 82.1669,
      "mean_motion_rev_day": 15.27608858
    },
    {
      "epoch": "2026-03-30T07:29:00.388320Z",
      "apogee_km": 484.031836074334,
      "perigee_km": 481.9194367158416,
      "latitude_deg": 1.8920906922004647e-05,
      "longitude_deg": 116.5521431171028,
      "height_km": 482.92817774707174,
      "semi_major_axis_km": 6861.112636395088,
      "eccentricity": 0.00015394,
      "inclination_deg": 43.0022,
      "raan_deg": 56.5091,
      "arg_perigee_deg": 260.4338,
      "mean_anomaly_deg": 99.634,
      "mean_motion_rev_day": 15.27604533
    },
    {
      "epoch": "2026-03-31T07:01:21.657792Z",
      "apogee_km": 484.13346094915505,
      "perigee_km": 481.82538138507425,
      "latitude_deg": -1.1065656173196096e-05,
      "longitude_deg": 116.95816724887342,
      "height_km": 482.81424108325376,
      "semi_major_axis_km": 6861.116421167114,
      "eccentricity": 0.0001682,
      "inclination_deg": 43.0031,
      "raan_deg": 50.9705,
      "arg_perigee_deg": 267.1413,
      "mean_anomaly_deg": 92.9246,
      "mean_motion_rev_day": 15.27603269
    },
    {
      "epoch": "2026-04-01T06:33:42.369120Z",
      "apogee_km": 485.11637388126655,
      "perigee_km": 480.90500143058307,
      "latitude_deg": -3.740833863800209e-06,
      "longitude_deg": 117.36506325864976,
      "height_km": 483.62520192488876,
      "semi_major_axis_km": 6861.1476876559245,
      "eccentricity": 0.0003069,
      "inclination_deg": 43.0023,
      "raan_deg": 45.4304,
      "arg_perigee_deg": 246.589,
      "mean_anomaly_deg": 113.4639,
      "mean_motion_rev_day": 15.27592827
    },
    {
      "epoch": "2026-04-02T20:13:27.472512Z",
      "apogee_km": 483.6784899680042,
      "perigee_km": 482.08673341809117,
      "latitude_deg": 2.8020362544480178e-05,
      "longitude_deg": -97.9826772824798,
      "height_km": 483.113313299754,
      "semi_major_axis_km": 6861.019611693047,
      "eccentricity": 0.000116,
      "inclination_deg": 43.0031,
      "raan_deg": 36.5673,
      "arg_perigee_deg": 235.2094,
      "mean_anomaly_deg": 124.8649,
      "mean_motion_rev_day": 15.27635601
    },
    {
      "epoch": "2026-04-02T21:47:36.746880Z",
      "apogee_km": 483.74257069101805,
      "perigee_km": 482.11828158855315,
      "latitude_deg": -1.0068268351526898e-05,
      "longitude_deg": -121.95640756699898,
      "height_km": 483.1935340638054,
      "semi_major_axis_km": 6861.067426139785,
      "eccentricity": 0.00011837,
      "inclination_deg": 43.0027,
      "raan_deg": 36.1967,
      "arg_perigee_deg": 233.1937,
      "mean_anomaly_deg": 126.8806,
      "mean_motion_rev_day": 15.27619632
    },
    {
      "epoch": "2026-04-03T05:38:22.958880Z",
      "apogee_km": 483.89278268459475,
      "perigee_km": 481.8921064985516,
      "latitude_deg": -4.269252989885395e-05,
      "longitude_deg": 118.1849769412121,
      "height_km": 482.6826168631568,
      "semi_major_axis_km": 6861.029444591572,
      "eccentricity": 0.0001458,
      "inclination_deg": 43.0041,
      "raan_deg": 34.3529,
      "arg_perigee_deg": 269.2572,
      "mean_anomaly_deg": 90.8112,
      "mean_motion_rev_day": 15.27632317
    },
    {
      "epoch": "2026-04-04T20:52:19.671168Z",
      "apogee_km": 484.10603543810066,
      "perigee_km": 481.88851684005203,
      "latitude_deg": 4.310241039911847e-05,
      "longitude_deg": -121.14245190160506,
      "height_km": 482.4739807012939,
      "semi_major_axis_km": 6861.134276139076,
      "eccentricity": 0.0001616,
      "inclination_deg": 43.0044,
      "raan_deg": 25.1229,
      "arg_perigee_deg": 285.7333,
      "mean_anomaly_deg": 74.3341,
      "mean_motion_rev_day": 15.27597306
    }
  ]
}